#aV2011  9 20  0  0   .00000000      96 DD+AD WGS84 FIT  NGA
## 1654 172800.00000000   900.00000000 55824  .0000000000000
+   32     1  2  3  4  5  6  7  8  9 10 11 12 13 14 15 16 17
+         18 19 20 21 22 23 24 25 26 27 28 29 30 31 32  0  0
+          0  0  0  0  0  0  0  0  0  0  0  0  0  0  0  0  0
+          0  0  0  0  0  0  0  0  0  0  0  0  0  0  0  0  0
+          0  0  0  0  0  0  0  0  0  0  0  0  0  0  0  0  0
++         0  0  0  0  0  0  0  0  0  0  0  0  0  0  0  0  0
++         0  0  0  0  0  0  0  0  0  0  0  0  0  0  0  0  0
++         0  0  0  0  0  0  0  0  0  0  0  0  0  0  0  0  0
++         0  0  0  0  0  0  0  0  0  0  0  0  0  0  0  0  0
++         0  0  0  0  0  0  0  0  0  0  0  0  0  0  0  0  0
%c cc cc ccc ccc cccc cccc cccc cccc ccccc ccccc ccccc ccccc
%c cc cc ccc ccc cccc cccc cccc cccc ccccc ccccc ccccc ccccc
%f  0.0000000  0.000000000  0.00000000000  0.000000000000000
%f  0.0000000  0.000000000  0.00000000000  0.000000000000000
%i    0    0    0    0      0      0      0      0         0
%i    0    0    0    0      0      0      0      0         0
/*      NGA, ST. LOUIS,MO.                                  
/*   EPHEMERIS COMPUTED FROM  3 DAYS OF DATA                
/* CCCCCCCCCCCCCCCCCCCCCCCCCCCCCCCCCCCCCCCCCCCCCCCCCCCCCCCCC
/* CCCCCCCCCCCCCCCCCCCCCCCCCCCCCCCCCCCCCCCCCCCCCCCCCCCCCCCCC
*  2011  9 20  9 30   .00000000                                                 
P  1 -22017.834109 -11768.575227   9051.850686     -3.271954                    
V  1  -6693.477990  -9710.371390 -28876.164012      -.018195                    
P  2  11865.291370  21496.376253  10801.727172    356.978232                    
V  2 -11741.543869  -7132.135783  26779.850952       .018702                    
P  3  -5117.314578 -15315.520805 -21520.808969    770.695064                    
V  3  24275.123600 -10475.324900   2022.782617       .049305                    
P  4  -2740.404391  17251.500610  19691.481585    236.701898                    
V  4 -19737.974130 -16485.702622  11903.239505       .112254                    
P  5   3583.646888  23185.223451 -12354.417720   -220.756702                    
V  5  -6121.290593  14719.580623  25985.840435      -.052390                    
P  6    546.926066 -16395.045531 -20710.030358    -66.542741                    
V  6  25493.524515  -8166.995353   7339.810373       .088292                    
P  7 -18157.834466    797.787545 -19441.049281     27.655571                    
V  7 -17029.539216 -17766.268018  14933.901044       .018803                    
P  8 -11697.141539   8486.719223 -22259.965714      9.190252                    
V  8 -18881.001820 -21011.775665   1353.031637       .000772                    
P  9  21229.269909  15000.068694   4834.315293    106.700288                    
V  9   3619.740114   6170.744172 -31498.724580       .023201                    
P 10  -9228.502312  24329.177516   3951.456014    -13.716114                    
V 10  -2075.903969  -6068.857850  31174.034615      -.011792                    
P 11 -23472.798534 -12815.898741   -134.376946   -187.529810                    
V 11   2069.516871  -4294.805665 -29857.597377      -.033581                    
P 12  13293.792445   7435.134208  21782.742721     23.503864                    
V 12  -7099.999293  26644.683426  -4595.691842       .024040                    
P 13 -26199.288436   4052.920883   2127.115012    250.634393                    
V 13   2411.411871  -2410.356934  32150.458165      -.018386                    
P 14  16339.326370 -14363.259357  15305.659581    173.080537                    
V 14  19001.870065  -2823.209316 -23342.188272       .018262                    
P 15  18852.337837   7059.174833 -17404.570690   -105.576170                    
V 15 -20478.600145   8473.945635 -18559.981173       .015098                    
P 16  -3822.194051 -22006.037498 -14129.654170   -198.789935                    
V 16   6684.696305 -16875.361616  24746.083351      -.021803                    
P 17 -15781.072676  15088.527405  15100.101618    174.372359                    
V 17 -18925.462784   2822.781510 -23045.951017      -.017658                    
P 18  15838.992504 -12880.190865 -16454.913306    158.212658                    
V 18  -2717.243631  21762.978085 -19627.350819       .018786                    
P 19 -16133.855477 -10046.518330 -18725.286352   -185.760067                    
V 19  22845.243446  -6062.604549 -16093.934420      -.040265                    
P 20 -14940.857527  -5415.216801  21140.517792     53.205399                    
V 20   5525.413703 -26727.721632  -2856.345402       .005383                    
P 21  16790.644514  -4316.224061 -19831.708715   -172.657321                    
V 21  18121.023853  18820.199039  10408.969717      -.025002                    
P 22  10592.462820 -23502.618961  -5965.212940    144.453009                    
V 22   1717.109755   8552.701969 -29861.353881      -.000526                    
P 23 -24210.254619  -1237.283329  11290.271816    274.509542                    
V 23  13051.747034  -5901.103093  27034.023320      -.030671                    
P 24 -21159.284263 -14592.760261   7347.520305    425.397639                    
V 24  -4353.685502  -8575.011148 -29419.862108       .030915                    
P 25  15827.737650  -5685.892295  20521.379310     19.579913                    
V 25  -4786.180635  25690.707216  10821.254318       .017897                    
P 26   7134.651766  13579.824471 -22319.077349   -163.264460                    
V 26 -26183.718452   5699.026265  -4658.947527      -.127121                    
P 27  20421.161456  17297.800229    403.318074    307.106035                    
V 27  -1413.271984   1211.530408 -31964.232937       .039006                    
P 28 -12265.166861  21486.381594  -8783.571662     68.975608                    
V 28    880.718904 -12173.697165 -29517.369372       .030713                    
P 29  25976.632207  -4819.833822   2562.426242    241.371351                    
V 29  -2384.513444   3493.452309  31592.169070       .033574                    
P 30  13654.389266 -15529.251775  16317.868533     82.960636                    
V 30   -788.846871  21502.340227  20640.136548      -.057810                    
P 31   -742.780743 -18537.742457  19122.929775    143.997604                    
V 31  17985.631713  15757.779471  16350.216253       .054891                    
P 32 -10063.153582 -14809.028853  20013.772286   -331.883453                    
V 32   8663.871898 -23186.319655 -12540.796347      -.065040                    
EOF
